OBJECT_NAME,OBJECT_ID,EPOCH,MEAN_MOTION,ECCENTRICITY,INCLINATION,RA_OF_ASC_NODE,ARG_OF_PERICENTER,MEAN_ANOMALY,EPHEMERIS_TYPE,CLASSIFICATION_TYPE,NORAD_CAT_ID,ELEMENT_SET_NO,REV_AT_EPOCH,BSTAR,MEAN_MOTION_DOT,MEAN_MOTION_DDOT
STARLINK-37365,2026-114E,2026-06-19T07:18:48.314304,15.78104838,.00010552,53.1574,191.8846,66.1842,293.9290,0,U,69186,999,510,.84960075E-3,.149793E-2,0
STARLINK-37209,2026-114F,2026-06-19T07:17:44.561472,15.77934111,.00039719,53.1574,191.8801,325.8875,34.1890,0,U,69187,999,510,.12800097E-2,.226391E-2,0
STARLINK-37359,2026-114G,2026-06-19T08:48:15.598080,15.78111414,.00016244,53.1572,191.5612,49.1673,310.9489,0,U,69188,999,511,.11638695E-2,.206903E-2,0
STARLINK-37440,2026-114H,2026-06-19T14:00:01.999872,15.61824691,.00009586,53.1600,190.1263,72.6674,249.2700,0,U,69189,999,520,-.29860923E-1,-.2321328E-1,0
STARLINK-37282,2026-114J,2026-06-19T02:34:08.672448,15.78072220,.00020573,53.1573,192.7822,320.1129,39.9741,0,U,69190,999,507,.35216133E-3,.60964E-3,0
STARLINK-37422,2026-114K,2026-06-19T08:07:43.544352,15.80955268,.00008777,53.1569,191.3733,96.1796,263.9327,0,U,69191,999,511,.88200278E-3,.17768E-2,0
STARLINK-37424,2026-114L,2026-06-19T14:00:01.999872,15.78074691,.00009908,53.1567,190.4080,87.5567,99.3356,0,U,69192,999,520,-.36506465E-3,-.63638E-3,0
STARLINK-36666,2026-114M,2026-06-19T14:00:01.999872,15.78895221,.00008802,53.1579,190.1536,75.8968,234.8647,0,U,69193,999,520,-.15918703E-1,-.2463239E-1,0
STARLINK-37355,2026-114N,2026-06-19T14:11:07.600416,15.80847865,.00003188,53.1568,190.1013,30.9677,329.1364,0,U,69194,999,515,.36298615E-3,.71454E-3,0
STARLINK-37166,2026-114P,2026-06-19T11:06:53.425440,15.80849847,.00026909,53.1562,190.7238,84.7330,275.3999,0,U,69195,999,513,.99275789E-3,.199638E-2,0
STARLINK-36933,2026-114Q,2026-06-19T12:38:59.396640,15.80996248,.00011536,53.1566,190.4134,90.2431,269.8724,0,U,69196,999,514,.10834758E-2,.219925E-2,0
STARLINK-37419,2026-114R,2026-06-19T12:36:49.729248,15.80970914,.00010824,53.1566,190.4016,102.3157,257.7987,0,U,69197,999,514,.95633096E-3,.193202E-2,0
STARLINK-37321,2026-114S,2026-06-19T14:06:46.889280,15.80988652,.00009255,53.1568,190.0824,89.3523,270.7606,0,U,69198,999,515,.11571847E-2,.235275E-2,0
STARLINK-37406,2026-114T,2026-06-19T14:00:01.999872,15.64949120,.00012447,53.1596,190.2644,87.1127,168.9835,0,U,69199,999,520,-.29243346E-1,-.2540549E-1,0
STARLINK-37761,2026-114U,2026-06-19T14:00:01.999872,15.64880858,.00012477,53.1595,190.2584,88.0602,170.6961,0,U,69200,999,520,-.2902644E-1,-.2518206E-1,0
STARLINK-37754,2026-114V,2026-06-19T14:00:01.999872,15.68822762,.00009123,53.1597,190.1786,73.0188,224.8158,0,U,69201,999,520,-.2537586E-1,-.2577704E-1,0
STARLINK-37649,2026-114W,2026-06-19T12:31:25.291200,15.80921915,.00012359,53.1567,190.3765,107.7453,252.3705,0,U,69202,999,514,.67490127E-3,.134909E-2,0
STARLINK-37604,2026-114X,2026-06-19T12:30:20.948256,15.80954621,.00009691,53.1565,190.3717,66.3182,293.7942,0,U,69203,999,514,.84993611E-3,.171057E-2,0
STARLINK-37669,2026-114Y,2026-06-19T14:00:01.999872,15.68155390,.00009492,53.1596,190.1610,77.3166,229.0656,0,U,69204,999,520,-.25587391E-1,-.2534693E-1,0
STARLINK-37691,2026-114Z,2026-06-19T12:56:10.838976,15.78151231,.0000784,53.1575,190.4918,80.1477,279.9633,0,U,69205,999,514,.11906267E-2,.212187E-2,0
STARLINK-37671,2026-114AA,2026-06-19T12:45:39.275712,15.78146608,.00009017,53.1578,190.4445,95.3413,264.7711,0,U,69206,999,514,.12400961E-2,.221221E-2,0
STARLINK-37647,2026-114AB,2026-06-19T12:28:11.331840,15.80954512,.00008882,53.1563,190.3615,77.2742,282.8380,0,U,69207,999,514,.88025282E-3,.177313E-2,0
STARLINK-37562,2026-114AC,2026-06-19T12:48:36.973728,15.78194183,.00009087,53.1581,190.4571,115.9955,244.1160,0,U,69208,999,514,.14242551E-2,.25576E-2,0
STARLINK-37682,2026-114AD,2026-06-19T12:23:52.038528,15.80948259,.00010739,53.1562,190.3405,101.6084,258.5059,0,U,69209,999,514,.8074488E-3,.162256E-2,0
STARLINK-37402,2026-114AE,2026-06-19T12:22:47.221248,15.80950584,.00008862,53.1568,190.3353,96.3429,263.7695,0,U,69210,999,514,.76986427E-3,.154548E-2,0
STARLINK-37613,2026-115A,2026-06-19T00:09:19.710432,15.49221335,.00006236,97.2845,187.1372,63.1383,296.9931,0,U,69211,999,494,.45328905E-3,.24667E-3,0
STARLINK-37713,2026-115B,2026-06-19T00:26:04.346304,15.49209721,.00017672,97.2851,187.2761,85.6709,274.4744,0,U,69212,999,495,.62566954E-3,.34111E-3,0
STARLINK-37716,2026-115C,2026-06-19T14:00:01.999872,15.43622072,.00014947,97.2855,187.9067,101.2469,289.6059,0,U,69213,999,507,-.60281091E-1,-.241008E-1,0
STARLINK-37620,2026-115D,2026-06-19T00:29:53.402208,15.49213222,.00010109,97.2838,187.1180,102.7595,257.3769,0,U,69214,999,494,.60222757E-3,.32827E-3,0
STARLINK-37700,2026-115E,2026-06-19T13:48:42.825888,15.49209951,.00017117,97.2839,187.5882,88.0608,272.0839,0,U,69215,999,502,.45350746E-3,.2467E-3,0
