STARLINK-37365          
1 69186U 26114E   26170.30472586  .00149793  00000+0  84960-3 0  9997
2 69186  53.1574 191.8846 0001055  66.1842 293.9290 15.78104838  5107
STARLINK-37209          
1 69187U 26114F   26170.30398798  .00226391  00000+0  12800-2 0  9993
2 69187  53.1574 191.8801 0003971 325.8875  34.1890 15.77934111  5104
STARLINK-37359          
1 69188U 26114G   26170.36684720  .00206903  00000+0  11639-2 0  9999
2 69188  53.1572 191.5612 0001624  49.1673 310.9489 15.78111414  5119
STARLINK-37440          
1 69189U 26114H   26170.58335648 -.02321328  00000+0 -29861-1 0  9994
2 69189  53.1600 190.1263 0000958  72.6674 249.2700 15.61824691  5200
STARLINK-37282          
1 69190U 26114J   26170.10704482  .00060964  00000+0  35216-3 0  9995
2 69190  53.1573 192.7822 0002057 320.1129  39.9741 15.78072220  5073
STARLINK-37422          
1 69191U 26114K   26170.33869843  .00177680  00000+0  88200-3 0  9999
2 69191  53.1569 191.3733 0000877  96.1796 263.9327 15.80955268  5112
STARLINK-37424          
1 69192U 26114L   26170.58335648 -.00063638  00000+0 -36506-3 0  9999
2 69192  53.1567 190.4080 0000990  87.5567  99.3356 15.78074691  5204
STARLINK-36666          
1 69193U 26114M   26170.58335648 -.02463239  00000+0 -15919-1 0  9996
2 69193  53.1579 190.1536 0000880  75.8968 234.8647 15.78895221  5203
STARLINK-37355          
1 69194U 26114N   26170.59106019  .00071454  00000+0  36299-3 0  9992
2 69194  53.1568 190.1013 0000318  30.9677 329.1364 15.80847865  5159
STARLINK-37166          
1 69195U 26114P   26170.46311835  .00199638  00000+0  99276-3 0  9992
2 69195  53.1562 190.7238 0002690  84.7330 275.3999 15.80849847  5133
STARLINK-36933          
1 69196U 26114Q   26170.52707635  .00219925  00000+0  10835-2 0  9992
2 69196  53.1566 190.4134 0001153  90.2431 269.8724 15.80996248  5140
STARLINK-37419          
1 69197U 26114R   26170.52557557  .00193202  00000+0  95633-3 0  9998
2 69197  53.1566 190.4016 0001082 102.3157 257.7987 15.80970914  5140
STARLINK-37321          
1 69198U 26114S   26170.58804270  .00235275  00000+0  11572-2 0  9998
2 69198  53.1568 190.0824 0000925  89.3523 270.7606 15.80988652  5154
STARLINK-37406          
1 69199U 26114T   26170.58335648 -.02540549  00000+0 -29243-1 0  9997
2 69199  53.1596 190.2644 0001244  87.1127 168.9835 15.64949120  5206
STARLINK-37761          
1 69200U 26114U   26170.58335648 -.02518206  00000+0 -29026-1 0  9994
2 69200  53.1595 190.2584 0001247  88.0602 170.6961 15.64880858  5204
STARLINK-37754          
1 69201U 26114V   26170.58335648 -.02577704  00000+0 -25376-1 0  9997
2 69201  53.1597 190.1786 0000912  73.0188 224.8158 15.68822762  5205
STARLINK-37649          
1 69202U 26114W   26170.52182050  .00134909  00000+0  67490-3 0  9996
2 69202  53.1567 190.3765 0001235 107.7453 252.3705 15.80921915  5142
STARLINK-37604          
1 69203U 26114X   26170.52107579  .00171057  00000+0  84994-3 0  9993
2 69203  53.1565 190.3717 0000969  66.3182 293.7942 15.80954621  5142
STARLINK-37669          
1 69204U 26114Y   26170.58335648 -.02534693  00000+0 -25587-1 0  9994
2 69204  53.1596 190.1610 0000949  77.3166 229.0656 15.68155390  5202
STARLINK-37691          
1 69205U 26114Z   26170.53901434  .00212187  00000+0  11906-2 0  9990
2 69205  53.1575 190.4918 0000784  80.1477 279.9633 15.78151231  5141
STARLINK-37671          
1 69206U 26114AA  26170.53170458  .00221221  00000+0  12401-2 0  9995
2 69206  53.1578 190.4445 0000901  95.3413 264.7711 15.78146608  5140
STARLINK-37647          
1 69207U 26114AB  26170.51957560  .00177313  00000+0  88025-3 0  9999
2 69207  53.1563 190.3615 0000888  77.2742 282.8380 15.80954512  5148
STARLINK-37562          
1 69208U 26114AC  26170.53376127  .00255760  00000+0  14243-2 0  9999
2 69208  53.1581 190.4571 0000908 115.9955 244.1160 15.78194183  5144
STARLINK-37682          
1 69209U 26114AD  26170.51657452  .00162256  00000+0  80745-3 0  9999
2 69209  53.1562 190.3405 0001073 101.6084 258.5059 15.80948259  5148
STARLINK-37402          
1 69210U 26114AE  26170.51582432  .00154548  00000+0  76986-3 0  9993
2 69210  53.1568 190.3353 0000886  96.3429 263.7695 15.80950584  5140
STARLINK-37613          
1 69211U 26115A   26170.00647813  .00024667  00000+0  45329-3 0  9999
2 69211  97.2845 187.1372 0000623  63.1383 296.9931 15.49221335  4941
STARLINK-37713          
1 69212U 26115B   26170.01810586  .00034111  00000+0  62567-3 0  9998
2 69212  97.2851 187.2761 0001767  85.6709 274.4744 15.49209721  4952
STARLINK-37716          
1 69213U 26115C   26170.58335648 -.02410080  00000+0 -60281-1 0  9998
2 69213  97.2855 187.9067 0001494 101.2469 289.6059 15.43622072  5071
STARLINK-37620          
1 69214U 26115D   26170.02075697  .00032827  00000+0  60223-3 0  9996
2 69214  97.2838 187.1180 0001010 102.7595 257.3769 15.49213222  4945
STARLINK-37700          
1 69215U 26115E   26170.57549567  .00024670  00000+0  45351-3 0  9991
2 69215  97.2839 187.5882 0001711  88.0608 272.0839 15.49209951  5025
